NORAD_CAT_ID,OBJECT_NAME,OBJECT_TYPE,EPOCH,MEAN_MOTION,ECCENTRICITY,INCLINATION,RA_OF_ASC_NODE,ARG_OF_PERICENTER,MEAN_ANOMALY,BSTAR,MEAN_MOTION_DOT,MEAN_MOTION_DDOT,TLE_LINE0,TLE_LINE1,TLE_LINE2,SEMIMAJOR_AXIS,PERIOD,APOGEE,PERIGEE,DECAYED
49745.0,STARLINK-3241,PAYLOAD,2022-10-08 11:10:28,15.08831817,0.0001886999999999,53.2187,352.6241,47.3062,312.8089,6.3054e-05,7.15e-06,0.0,0 STARLINK-3241,1 49745U 21115X   22281.46560710  .00000715  00000-0  63054-4 0  9998,2 49745  53.2187 352.6241 0001887  47.3062 312.8089 15.08831817 48203,6917.905,95.438,541.076,538.465,0.0
49745.0,STARLINK-3241,PAYLOAD,2022-10-09 11:01:15,15.08841377,0.0001985,53.2186,348.1646,52.1234,307.9938,-5.9856e-05,-1.241e-05,0.0,0 STARLINK-3241,1 49745U 21115X   22282.45920648 -.00001241  00000-0 -59856-4 0  9990,2 49745  53.2186 348.1646 0001985  52.1234 307.9938 15.08841377 47248,6917.876,95.437,541.114,538.368,0.0
49745.0,STARLINK-3241,PAYLOAD,2022-10-10 04:30:28,15.0884934,0.0001994,53.2178,344.8936,43.668,316.447,0.00018459,2.652e-05,0.0,0 STARLINK-3241,1 49745U 21115X   22283.18782984  .00002652  00000-0  18459-3 0  9998,2 49745  53.2178 344.8936 0001994  43.6680 316.4470 15.08849340 48463,6917.852,95.437,541.096,538.337,0.0
49745.0,STARLINK-3241,PAYLOAD,2022-10-10 10:52:01,15.08842595,0.0002000999999999,53.2184,343.7039,43.7263,316.3887,0.0001336,1.839e-05,0.0,0 STARLINK-3241,1 49745U 21115X   22283.45279501  .00001839  00000-0  13360-3 0  9996,2 49745  53.2184 343.7039 0002001  43.7263 316.3887 15.08842595 47397,6917.871999999999,95.437,541.122,538.3530000000002,0.0
49745.0,STARLINK-3241,PAYLOAD,2022-10-11 04:21:17,15.08832433,0.0001996,53.2188,340.4342,48.0356,312.0806,6.0033000000000015e-06,-1.93e-06,0.0,0 STARLINK-3241,1 49745U 21115X   22284.18144701 -.00000193  00000-0  60033-5 0  9994,2 49745  53.2188 340.4342 0001996  48.0356 312.0806 15.08832433 48615,6917.904,95.438,541.149,538.388,0.0
49745.0,STARLINK-3241,PAYLOAD,2022-10-11 09:07:27,15.08826967,0.0001792,53.2181,339.5384,36.5874,323.524,-5.550000000000003e-05,-1.171e-05,0.0,0 STARLINK-3241,1 49745U 21115X   22284.38017414 -.00001171  00000-0 -55500-4 0  9996,2 49745  53.2181 339.5384 0001792  36.5874 323.5240 15.08826967 47538,6917.92,95.438,541.025,538.5459999999998,0.0
49745.0,STARLINK-3241,PAYLOAD,2022-10-12 10:33:37,15.08826867,0.0002008,53.2184,334.7832,33.415,326.6969,-7.905899999999999e-05,-1.546e-05,0.0,0 STARLINK-3241,1 49745U 21115X   22285.44002222 -.00001546  00000-0 -79059-4 0  9996,2 49745  53.2184 334.7832 0002008  33.4150 326.6969 15.08826867 48802,6917.920999999999,95.438,541.175,538.396,0.0
49745.0,STARLINK-3241,PAYLOAD,2022-10-13 11:59:48,15.08831737,0.0001909,53.218,330.026,50.8908,309.2254,6.886199999999999e-05,8.08e-06,0.0,0 STARLINK-3241,1 49745U 21115X   22286.49986237  .00000808  00000-0  68862-4 0  9997,2 49745  53.2180 330.0260 0001909  50.8908 309.2254 15.08831737 47855,6917.906,95.438,541.091,538.45,0.0
49745.0,STARLINK-3241,PAYLOAD,2022-10-14 11:50:35,15.08830279,0.0002049,53.2173,325.565,24.2439,335.8649,0.00023655,3.478e-05,0.0,0 STARLINK-3241,1 49745U 21115X   22287.49346350  .00003478  00000-0  23655-3 0  9990,2 49745  53.2173 325.5650 0002049  24.2439 335.8649 15.08830279 48000,6917.91,95.438,541.193,538.3580000000002,0.0
49745.0,STARLINK-3241,PAYLOAD,2022-10-14 19:47:29,15.08849476,0.000206,53.2172,324.0781,36.0334,324.0797,0.00015237,2.138e-05,0.0,0 STARLINK-3241,1 49745U 21115X   22287.82465277  .00002138  00000-0  15237-3 0  9996,2 49745  53.2172 324.0781 0002060  36.0334 324.0797 15.08849476 49167,6917.851,95.437,541.1419999999998,538.2909999999998,0.0
49745.0,STARLINK-3241,PAYLOAD,2022-10-15 10:05:57,15.08849863,0.0002084,53.2175,321.4023,41.1279,318.987,0.00016143,2.283e-05,0.0,0 STARLINK-3241,1 49745U 21115X   22288.42080925  .00002283  00000-0  16143-3 0  9994,2 49745  53.2175 321.4023 0002084  41.1279 318.9870 15.08849863 48142,6917.85,95.437,541.1569999999998,538.274,0.0
49745.0,STARLINK-3241,PAYLOAD,2022-10-15 19:38:16,15.08848494,0.0002229,53.2179,319.6199,40.4918,319.624,8.1356e-05,1.007e-05,0.0,0 STARLINK-3241,1 49745U 21115X   22288.81825043  .00001007  00000-0  81356-4 0  9997,2 49745  53.2179 319.6199 0002229  40.4918 319.6240 15.08848494 48207,6917.854,95.437,541.261,538.177,0.0
49745.0,STARLINK-3241,PAYLOAD,2022-10-16 01:59:49,15.08842926,0.0002281,53.2178,318.4305,28.7983,331.3134,0.00010493,1.382e-05,0.0,0 STARLINK-3241,1 49745U 21115X   22289.08320960  .00001382  00000-0  10493-3 0  9994,2 49745  53.2178 318.4305 0002281  28.7983 331.3134 15.08842926 49355,6917.871,95.437,541.314,538.158,0.0
49745.0,STARLINK-3241,PAYLOAD,2022-10-16 08:21:22,15.08841607,0.0002174999999999,53.2179,317.2396,47.5699,312.5476,2.0981e-05,4.6e-07,0.0,0 STARLINK-3241,1 49745U 21115X   22289.34817388  .00000046  00000-0  20981-4 0  9998,2 49745  53.2179 317.2396 0002175  47.5699 312.5476 15.08841607 48284,6917.875,95.437,541.245,538.236,0.0
49745.0,STARLINK-3241,PAYLOAD,2022-10-16 19:29:04,15.08839717,0.000213,53.2189,315.1574,42.9861,317.1297,-5.6085e-05,-1.181e-05,0.0,0 STARLINK-3241,1 49745U 21115X   22289.81185703 -.00001181  00000-0 -56085-4 0  9996,2 49745  53.2189 315.1574 0002130  42.9861 317.1297 15.08839717 48350,6917.880999999999,95.438,541.22,538.273,0.0
49745.0,STARLINK-3241,PAYLOAD,2022-10-17 01:50:37,15.08834416,0.0002038,53.2191,313.9687,41.2375,318.8771,-4.4453e-05,-9.96e-06,0.0,0 STARLINK-3241,1 49745U 21115X   22290.07681957 -.00000996  00000-0 -44453-4 0  9997,2 49745  53.2191 313.9687 0002038  41.2375 318.8771 15.08834416 48393,6917.897,95.438,541.172,538.3530000000002,0.0
49745.0,STARLINK-3241,PAYLOAD,2022-10-18 01:41:24,15.08832496,0.000204,53.2234,309.5114,26.3467,333.7628,8.438799999999999e-05,1.055e-05,0.0,0 STARLINK-3241,1 49745U 21115X   22291.07041757  .00001055  00000-0  84388-4 0  9992,2 49745  53.2234 309.5114 0002040  26.3467 333.7628 15.08832496 49659,6917.903,95.438,541.18,538.357,0.0
49745.0,STARLINK-3241,PAYLOAD,2022-10-18 08:02:56,15.08830357,0.0002017,53.2218,308.3208,30.7825,329.3285,4.7895e-05,4.74e-06,0.0,0 STARLINK-3241,1 49745U 21115X   22291.33538111  .00000474  00000-0  47895-4 0  9992,2 49745  53.2218 308.3208 0002017  30.7825 329.3285 15.08830357 48588,6917.91,95.438,541.17,538.38,0.0
49745.0,STARLINK-3241,PAYLOAD,2022-10-19 04:42:57,15.08838833,0.0002159,53.2165,304.4519,35.1338,324.9796,6.5517e-05,7.55e-06,0.0,0 STARLINK-3241,1 49745U 21115X   22292.19649798  .00000755  00000-0  65517-4 0  9994,2 49745  53.2165 304.4519 0002159  35.1338 324.9796 15.08838833 49829,6917.884,95.438,541.243,538.255,0.0
49745.0,STARLINK-3241,PAYLOAD,2022-10-19 07:53:43,15.08840073,0.0002173,53.2171,303.8579,36.0064,324.1074,7.3316e-05,8.79e-06,0.0,0 STARLINK-3241,1 49745U 21115X   22292.32897716  .00000879  00000-0  73316-4 0  9997,2 49745  53.2171 303.8579 0002173  36.0064 324.1074 15.08840073 48736,6917.88,95.438,541.248,538.242,0.0
49745.0,STARLINK-3241,PAYLOAD,2022-10-19 17:26:02,15.08838168,0.0002208,53.217,302.0736,35.7871,324.3269,6.7823e-05,7.91e-06,0.0,0 STARLINK-3241,1 49745U 21115X   22292.72641850  .00000791  00000-0  67823-4 0  9996,2 49745  53.2170 302.0736 0002208  35.7871 324.3269 15.08838168 48798,6917.886,95.438,541.278,538.224,0.0
49745.0,STARLINK-3241,PAYLOAD,2022-10-20 06:09:07,15.08835679,0.0002236,53.2179,299.6956,39.8972,320.2184,4.184e-05,3.78e-06,0.0,0 STARLINK-3241,1 49745U 21115X   22293.25634233  .00000378  00000-0  41840-4 0  9994,2 49745  53.2179 299.6956 0002236  39.8972 320.2184 15.08835679 49987,6917.894,95.438,541.305,538.212,0.0
49745.0,STARLINK-3241,PAYLOAD,2022-10-20 07:44:31,15.08835988,0.0002242,53.2179,299.3982,39.964,320.1517,4.3075e-05,3.97e-06,0.0,0 STARLINK-3241,1 49745U 21115X   22293.32258225  .00000397  00000-0  43075-4 0  9998,2 49745  53.2179 299.3982 0002242  39.9640 320.1517 15.08835988 48883,6917.893,95.438,541.309,538.207,0.0
49745.0,STARLINK-3241,PAYLOAD,2022-10-20 17:16:49,15.08843692,0.0002236,53.218,297.6144,41.1686,318.9474,6.5359e-05,7.52e-06,0.0,0 STARLINK-3241,1 49745U 21115X   22293.72001646  .00000752  00000-0  65359-4 0  9999,2 49745  53.2180 297.6144 0002236  41.1686 318.9474 15.08843692 50054,6917.869000000002,95.437,541.281,538.187,0.0
49745.0,STARLINK-3241,PAYLOAD,2022-10-21 09:10:41,15.08836739,0.0002229,53.2184,294.6412,41.8557,318.2606,1.2282e-06,-2.69e-06,0.0,0 STARLINK-3241,1 49745U 21115X   22294.38242245 -.00000269  00000-0  12282-5 0  9996,2 49745  53.2184 294.6412 0002229  41.8557 318.2606 15.08836739 49040,6917.89,95.438,541.297,538.2130000000002,0.0
49745.0,STARLINK-3241,PAYLOAD,2022-10-22 07:26:05,15.08837615,0.0002214,53.2173,290.4762,38.7343,321.3807,-3.5356e-06,-3.45e-06,0.0,0 STARLINK-3241,1 49745U 21115X   22295.30978165 -.00000345  00000-0 -35356-5 0  9999,2 49745  53.2173 290.4762 0002214  38.7343 321.3807 15.08837615 49189,6917.888000000001,95.438,541.284,538.221,0.0
49745.0,STARLINK-3241,PAYLOAD,2022-10-22 16:58:23,15.08844481,0.0002274,53.2172,288.6918,38.8685,321.247,1.0697e-05,-1.18e-06,0.0,0 STARLINK-3241,1 49745U 21115X   22295.70721647 -.00000118  00000-0  10697-4 0  9991,2 49745  53.2172 288.6918 0002274  38.8685 321.2470 15.08844481 50351,6917.8669999999975,95.437,541.305,538.159,0.0
49745.0,STARLINK-3241,PAYLOAD,2022-10-23 04:06:05,15.0883699,0.0002275999999999,53.2167,286.6096,38.9784,321.1372,2.510300000000001e-05,1.11e-06,0.0,0 STARLINK-3241,1 49745U 21115X   22296.17090041  .00000111  00000-0  25103-4 0  9990,2 49745  53.2167 286.6096 0002276  38.9784 321.1372 15.08836990 50427,6917.89,95.438,541.3290000000002,538.18,0.0
49745.0,STARLINK-3241,PAYLOAD,2022-10-23 08:52:15,15.08839716,0.0002346,53.2171,285.7177,39.9492,320.1673,4.206899999999999e-05,3.81e-06,0.0,0 STARLINK-3241,1 49745U 21115X   22296.36961848  .00000381  00000-0  42069-4 0  9992,2 49745  53.2171 285.7177 0002346  39.9492 320.1673 15.08839716 49348,6917.880999999999,95.438,541.369,538.123,0.0
